{
  "links" : {
    "next" : "https://api.nasa.gov/neo/rest/v1/feed?start_date=1998-05-23&end_date=1998-05-23&detailed=true&api_key=t0TVs3DtDT2H8Oy2Zy8m2eVrNsAVKAexjcZXUckd",
    "prev" : "https://api.nasa.gov/neo/rest/v1/feed?start_date=1998-05-21&end_date=1998-05-21&detailed=true&api_key=t0TVs3DtDT2H8Oy2Zy8m2eVrNsAVKAexjcZXUckd",
    "self" : "https://api.nasa.gov/neo/rest/v1/feed?start_date=1998-05-22&end_date=1998-05-22&detailed=true&api_key=t0TVs3DtDT2H8Oy2Zy8m2eVrNsAVKAexjcZXUckd"
  },
  "element_count" : 7,
  "near_earth_objects" : {
    "1998-05-22" : [ {
      "links" : {
        "self" : "https://api.nasa.gov/neo/rest/v1/neo/3702310?api_key=t0TVs3DtDT2H8Oy2Zy8m2eVrNsAVKAexjcZXUckd"
      },
      "neo_reference_id" : "3702310",
      "name" : "(2014 XC8)",
      "nasa_jpl_url" : "http://ssd.jpl.nasa.gov/sbdb.cgi?sstr=3702310",
      "absolute_magnitude_h" : 26.3,
      "estimated_diameter" : {
        "kilometers" : {
          "estimated_diameter_min" : 0.0146067964,
          "estimated_diameter_max" : 0.0326617897
        },
        "meters" : {
          "estimated_diameter_min" : 14.6067964271,
          "estimated_diameter_max" : 32.6617897446
        },
        "miles" : {
          "estimated_diameter_min" : 0.0090762397,
          "estimated_diameter_max" : 0.020295089
        },
        "feet" : {
          "estimated_diameter_min" : 47.92256199,
          "estimated_diameter_max" : 107.1581062656
        }
      },
      "is_potentially_hazardous_asteroid" : false,
      "close_approach_data" : [ {
        "close_approach_date" : "1998-05-22",
        "epoch_date_close_approach" : 895820400000,
        "relative_velocity" : {
          "kilometers_per_second" : "12.4079554674",
          "kilometers_per_hour" : "44668.6396827746",
          "miles_per_hour" : "27755.3555851107"
        },
        "miss_distance" : {
          "astronomical" : "0.0172990134",
          "lunar" : "6.7293162346",
          "kilometers" : "2587895.5",
          "miles" : "1608043.75"
        },
        "orbiting_body" : "Earth"
      } ],
      "orbital_data" : {
        "orbit_id" : "11",
        "orbit_determination_date" : "2017-04-06 08:36:54",
        "orbit_uncertainty" : "7",
        "minimum_orbit_intersection" : ".00431893",
        "jupiter_tisserand_invariant" : "5.554",
        "epoch_osculation" : "2458000.5",
        "eccentricity" : ".3825281032654501",
        "semi_major_axis" : "1.106498358415482",
        "inclination" : "2.23465182485759",
        "ascending_node_longitude" : "72.40049027013198",
        "orbital_period" : "425.1327752250208",
        "perihelion_distance" : ".6832316401044736",
        "perihelion_argument" : "270.5279719691838",
        "aphelion_distance" : "1.529765076726491",
        "perihelion_time" : "2457792.056120360225",
        "mean_anomaly" : "176.5090838517469",
        "mean_motion" : ".8467942745874008",
        "equinox" : "J2000"
      }
    }, {
      "links" : {
        "self" : "https://api.nasa.gov/neo/rest/v1/neo/3716433?api_key=t0TVs3DtDT2H8Oy2Zy8m2eVrNsAVKAexjcZXUckd"
      },
      "neo_reference_id" : "3716433",
      "name" : "(2015 HA1)",
      "nasa_jpl_url" : "http://ssd.jpl.nasa.gov/sbdb.cgi?sstr=3716433",
      "absolute_magnitude_h" : 21.2,
      "estimated_diameter" : {
        "kilometers" : {
          "estimated_diameter_min" : 0.1529519353,
          "estimated_diameter_max" : 0.3420109247
        },
        "meters" : {
          "estimated_diameter_min" : 152.9519353442,
          "estimated_diameter_max" : 342.0109247198
        },
        "miles" : {
          "estimated_diameter_min" : 0.095039897,
          "estimated_diameter_max" : 0.2125156703
        },
        "feet" : {
          "estimated_diameter_min" : 501.8108275547,
          "estimated_diameter_max" : 1122.0831222578
        }
      },
      "is_potentially_hazardous_asteroid" : false,
      "close_approach_data" : [ {
        "close_approach_date" : "1998-05-22",
        "epoch_date_close_approach" : 895820400000,
        "relative_velocity" : {
          "kilometers_per_second" : "14.1556577682",
          "kilometers_per_hour" : "50960.3679656741",
          "miles_per_hour" : "31664.7908617823"
        },
        "miss_distance" : {
          "astronomical" : "0.1848601884",
          "lunar" : "71.9106140137",
          "kilometers" : "27654690",
          "miles" : "17183828"
        },
        "orbiting_body" : "Earth"
      } ],
      "orbital_data" : {
        "orbit_id" : "52",
        "orbit_determination_date" : "2017-04-06 08:34:22",
        "orbit_uncertainty" : "2",
        "minimum_orbit_intersection" : ".0558885",
        "jupiter_tisserand_invariant" : "6.192",
        "epoch_osculation" : "2458000.5",
        "eccentricity" : ".1884077389571414",
        "semi_major_axis" : ".9641386196073153",
        "inclination" : "19.87053310935988",
        "ascending_node_longitude" : "57.32432318562812",
        "orbital_period" : "345.7861911459773",
        "perihelion_distance" : ".7824874422458415",
        "perihelion_argument" : "315.2260005565768",
        "aphelion_distance" : "1.145789796968789",
        "perihelion_time" : "2457969.366106286140",
        "mean_anomaly" : "32.41367649715665",
        "mean_motion" : "1.0411057735039",
        "equinox" : "J2000"
      }
    }, {
      "links" : {
        "self" : "https://api.nasa.gov/neo/rest/v1/neo/3735612?api_key=t0TVs3DtDT2H8Oy2Zy8m2eVrNsAVKAexjcZXUckd"
      },
      "neo_reference_id" : "3735612",
      "name" : "(2015 XC)",
      "nasa_jpl_url" : "http://ssd.jpl.nasa.gov/sbdb.cgi?sstr=3735612",
      "absolute_magnitude_h" : 25.2,
      "estimated_diameter" : {
        "kilometers" : {
          "estimated_diameter_min" : 0.0242412481,
          "estimated_diameter_max" : 0.0542050786
        },
        "meters" : {
          "estimated_diameter_min" : 24.2412481101,
          "estimated_diameter_max" : 54.2050786336
        },
        "miles" : {
          "estimated_diameter_min" : 0.0150628086,
          "estimated_diameter_max" : 0.0336814639
        },
        "feet" : {
          "estimated_diameter_min" : 79.5316564495,
          "estimated_diameter_max" : 177.8381901842
        }
      },
      "is_potentially_hazardous_asteroid" : false,
      "close_approach_data" : [ {
        "close_approach_date" : "1998-05-22",
        "epoch_date_close_approach" : 895820400000,
        "relative_velocity" : {
          "kilometers_per_second" : "16.5171417096",
          "kilometers_per_hour" : "59461.7101547029",
          "miles_per_hour" : "36947.194290293"
        },
        "miss_distance" : {
          "astronomical" : "0.291081264",
          "lunar" : "113.2306060791",
          "kilometers" : "43545136",
          "miles" : "27057692"
        },
        "orbiting_body" : "Earth"
      } ],
      "orbital_data" : {
        "orbit_id" : "17",
        "orbit_determination_date" : "2017-04-06 08:30:21",
        "orbit_uncertainty" : "3",
        "minimum_orbit_intersection" : ".00731132",
        "jupiter_tisserand_invariant" : "5.318",
        "epoch_osculation" : "2458000.5",
        "eccentricity" : ".293373061369425",
        "semi_major_axis" : "1.179708469631381",
        "inclination" : "4.873125492925648",
        "ascending_node_longitude" : "70.79138570697498",
        "orbital_period" : "468.0157548305972",
        "perihelion_distance" : ".8336137843721835",
        "perihelion_argument" : "76.27001715453082",
        "aphelion_distance" : "1.525803154890579",
        "perihelion_time" : "2457887.778115658902",
        "mean_anomaly" : "86.70622290799525",
        "mean_motion" : ".7692048745886887",
        "equinox" : "J2000"
      }
    } ]
  }
}